ORBCOMM-X               
1 21576U 91050C   24136.75493303  .00001139  00000+0  35667-3 0  9999
2 21576  98.3908 204.5000 0002685 322.7901  37.3102 14.42503942724807
ORBCOMM FM01            
1 23545U 95017A   24136.97740771  .00010523  00000+0  13941-2 0  9999
2 23545  69.9684 337.0190 0007936 220.2929 139.7634 14.80073302553887
ORBCOMM FM02            
1 23546U 95017B   24136.94027104  .00012197  00000+0  16280-2 0  9993
2 23546  69.9707 356.5439 0009653 212.4439 147.6118 14.79693026553179
ORBCOMM FM08            
1 25112U 97084A   24137.21392783  .00004871  00000+0  14947-2 0  9997
2 25112  45.0133 108.8673 0007447  30.3067 329.8213 14.42588474384159
ORBCOMM FM10            
1 25113U 97084B   24137.22118695  .00004991  00000+0  15332-2 0  9999
2 25113  45.0146 110.6927 0006047 359.1067   0.9771 14.42500077384142
ORBCOMM FM11            
1 25114U 97084C   24137.24035229  .00004171  00000+0  12918-2 0  9990
2 25114  45.0130 110.6739 0006754   1.0044 359.0819 14.42373228384136
ORBCOMM FM12            
1 25115U 97084D   24137.20035946  .00004219  00000+0  13074-2 0  9990
2 25115  45.0139 110.5633 0005798 358.5316   1.5516 14.42339186384135
ORBCOMM FM09            
1 25116U 97084E   24136.31132998  .00003730  00000+0  11618-2 0  9996
2 25116  45.0141 115.4950 0007246 344.7980  15.2651 14.42296363383971
